CALSPHERE 1             
1 00900U 64063C   20026.86601747  .00000187  00000-0  19035-3 0  9994
2 00900  90.1492  26.0907 0028794 122.6348 308.8396 13.73324015750879
CALSPHERE 2             
1 00902U 64063E   20027.04467157  .00000031  00000-0  32790-4 0  9994
2 00902  90.1580  28.6715 0019059 154.5646 269.5724 13.52679514541288
LCS 1                   
1 01361U 65034C   20026.25546992  .00000020  00000-0  15153-2 0  9990
2 01361  32.1441 318.5507 0005621 301.2128  58.7818  9.89296506978744
TEMPSAT 1               
1 01512U 65065E   20026.40630991  .00000018  00000-0  18941-4 0  9999
2 01512  89.8638 227.8908 0068645 323.0842 153.3114 13.33426668649021
CALSPHERE 4(A)          
1 01520U 65065H   20027.17560574  .00000051  00000-0  80762-4 0  9999
2 01520  90.0441 128.6091 0070156 201.8578 206.8168 13.35805867651611
OPS 5712 (P/L 160)      
1 02826U 67053A   20026.38675902  .00000402  00000-0  12208-3 0  9991
2 02826  69.9275 173.7414 0005061 172.6977 187.4231 14.48949377726216
OPS 5712 (P/L 153)      
1 02874U 67053H   20027.15223896 -.00000033  00000-0  14858-4 0  9996
2 02874  69.9738  73.4306 0008722 324.1111  35.9408 13.96342183681543
SURCAL 150B             
1 02909U 67053J   20026.25398291  .00000544  00000-0  12308-3 0  9990
2 02909  69.9466 204.0779 0006224 223.7739 136.2908 14.61571208735951
RIGIDSPHERE 2 (LCS 4)   
1 05398U 71067E   20027.16251491  .00000162  00000-0  50455-4 0  9998
2 05398  87.6208 263.3995 0064296  23.7119 336.7017 14.33854526539482